NORAD_CAT_ID,OBJECT_NAME,OBJECT_TYPE,EPOCH,MEAN_MOTION,ECCENTRICITY,INCLINATION,RA_OF_ASC_NODE,ARG_OF_PERICENTER,MEAN_ANOMALY,BSTAR,MEAN_MOTION_DOT,MEAN_MOTION_DDOT,TLE_LINE0,TLE_LINE1,TLE_LINE2,SEMIMAJOR_AXIS,PERIOD,APOGEE,PERIGEE,DECAYED
52123.0,STARLINK-3725,PAYLOAD,2024-04-20 10:51:59,15.08841826,0.0001062,53.2176,278.6672,88.9398,271.1716,-8.8041e-05,-1.689e-05,0.0,0 STARLINK-3725,1 52123U 22029AM  24111.45276701 -.00001689  00000-0 -88041-4 0  9990,2 52123  53.2176 278.6672 0001062  88.9398 271.1716 15.08841826117031,6917.875,95.437,540.474,539.005,0.0
52123.0,STARLINK-3725,PAYLOAD,2024-04-20 20:24:17,15.088589,0.0001469,53.2174,276.8822,109.0157,251.0994,0.00026977,4.01e-05,0.0,0 STARLINK-3725,1 52123U 22029AM  24111.85019870  .00004010  00000-0  26977-3 0  9994,2 52123  53.2174 276.8822 0001469 109.0157 251.0994 15.08858900117097,6917.823,95.436,540.704,538.671,0.0
52123.0,STARLINK-3725,PAYLOAD,2024-04-21 10:42:46,15.08834993,0.0001116,53.2171,274.2069,101.997,258.1147,-0.00022459,-3.86e-05,0.0,0 STARLINK-3725,1 52123U 22029AM  24112.44636809 -.00003860  00000-0 -22459-3 0  9992,2 52123  53.2171 274.2069 0001116 101.9970 258.1147 15.08834993117186,6917.896,95.438,540.533,538.989,0.0
52123.0,STARLINK-3725,PAYLOAD,2024-04-21 15:28:55,15.08843026,0.0002385,53.2179,273.3129,129.9154,230.2048,-6.655e-05,-1.348e-05,0.0,0 STARLINK-3725,1 52123U 22029AM  24112.64508347 -.00001348  00000-0 -66550-4 0  9999,2 52123  53.2179 273.3129 0002385 129.9154 230.2048 15.08843026117216,6917.871,95.437,541.386,538.086,0.0
52123.0,STARLINK-3725,PAYLOAD,2024-04-22 16:55:06,15.0883841,0.0001547,53.2175,268.5605,86.4382,273.6787,2.9402e-05,1.8e-06,0.0,0 STARLINK-3725,1 52123U 22029AM  24113.70493570  .00000180  00000-0  29402-4 0  9994,2 52123  53.2175 268.5605 0001547  86.4382 273.6787 15.08838410117375,6917.885,95.438,540.82,538.68,0.0
52123.0,STARLINK-3725,PAYLOAD,2024-04-23 13:35:07,15.08837378,0.0001508,53.2174,264.6975,85.7141,274.4023,0.00022124,3.235e-05,0.0,0 STARLINK-3725,1 52123U 22029AM  24114.56605988  .00003235  00000-0  22124-3 0  9994,2 52123  53.2174 264.6975 0001508  85.7141 274.4023 15.08837378117502,6917.888,95.438,540.797,538.71,0.0
52123.0,STARLINK-3725,PAYLOAD,2024-04-23 16:45:53,15.08845857,0.0001593,53.2187,264.1002,99.7307,260.3865,0.00030815,4.62e-05,0.0,0 STARLINK-3725,1 52123U 22029AM  24114.69853549  .00004620  00000-0  30815-3 0  9991,2 52123  53.2187 264.1002 0001593  99.7307 260.3865 15.08845857117526,6917.862,95.437,540.83,538.625,0.0
52123.0,STARLINK-3725,PAYLOAD,2024-04-24 10:15:08,15.08834179,0.0001516,53.2177,260.8324,85.8588,274.2578,7.2749e-05,8.7e-06,0.0,0 STARLINK-3725,1 52123U 22029AM  24115.42718468  .00000870  00000-0  72749-4 0  9999,2 52123  53.2177 260.8324 0001516  85.8588 274.2578 15.08834179117639,6917.898,95.438,540.812,538.714,0.0
52123.0,STARLINK-3725,PAYLOAD,2024-04-24 13:25:54,15.08838179,0.0001362,53.2173,260.2391,79.7497,280.3649,0.00012241,1.661e-05,0.0,0 STARLINK-3725,1 52123U 22029AM  24115.55966338  .00001661  00000-0  12241-3 0  9993,2 52123  53.2173 260.2391 0001362  79.7497 280.3649 15.08838179117656,6917.886,95.438,540.693,538.809,0.0
52123.0,STARLINK-3725,PAYLOAD,2024-04-24 16:36:40,15.08843708,0.0001527,53.2184,259.6407,101.9457,258.1707,0.00018193,2.609e-05,0.0,0 STARLINK-3725,1 52123U 22029AM  24115.69213944  .00002609  00000-0  18193-3 0  9991,2 52123  53.2184 259.6407 0001527 101.9457 258.1707 15.08843708117679,6917.869,95.437,540.79,538.678,0.0
52123.0,STARLINK-3725,PAYLOAD,2024-04-25 13:16:41,15.08837648,0.0001596,53.2184,255.7702,105.9268,254.1901,6.2783e-06,-1.88e-06,0.0,0 STARLINK-3725,1 52123U 22029AM  24116.55326204 -.00000188  00000-0  62783-5 0  9998,2 52123  53.2184 255.7702 0001596 105.9268 254.1901 15.08837648117807,6917.888,95.438,540.857,538.648,0.0
52123.0,STARLINK-3725,PAYLOAD,2024-04-25 14:52:05,15.08837863,0.0001513,53.2189,255.4739,109.7054,250.4101,1.6776e-05,-2.1e-07,0.0,0 STARLINK-3725,1 52123U 22029AM  24116.61950282 -.00000021  00000-0  16776-4 0  9990,2 52123  53.2189 255.4739 0001513 109.7054 250.4101 15.08837863117814,6917.887,95.438,540.799,538.705,0.0
52123.0,STARLINK-3725,PAYLOAD,2024-04-25 16:27:28,15.08838736,0.0001415,53.2184,255.1761,88.6765,271.4389,6.7295e-05,7.83e-06,0.0,0 STARLINK-3725,1 52123U 22029AM  24116.68574292  .00000783  00000-0  67295-4 0  9996,2 52123  53.2184 255.1761 0001415  88.6765 271.4389 15.08838736117828,6917.884,95.438,540.728,538.77,0.0
52123.0,STARLINK-3725,PAYLOAD,2024-04-26 13:07:29,15.08832713,0.0001403,53.2186,251.3121,95.8057,264.3095,-1.0225e-05,-4.51e-06,0.0,0 STARLINK-3725,1 52123U 22029AM  24117.54687046 -.00000451  00000-0 -10225-4 0  9999,2 52123  53.2186 251.3121 0001403  95.8057 264.3095 15.08832713117957,6917.903,95.438,540.738,538.797,0.0
52123.0,STARLINK-3725,PAYLOAD,2024-04-26 14:42:53,15.08836269,0.0002332,53.2189,251.0148,50.7561,309.3638,6.0354e-05,6.72e-06,0.0,0 STARLINK-3725,1 52123U 22029AM  24117.61311371  .00000672  00000-0  60354-4 0  9993,2 52123  53.2189 251.0148 0002332  50.7561 309.3638 15.08836269117962,6917.892,95.438,541.37,538.144,0.0
52123.0,STARLINK-3725,PAYLOAD,2024-04-26 16:18:15,15.08850274,0.000135,53.2185,250.7175,95.7747,264.3399,0.00026111,3.871e-05,0.0,0 STARLINK-3725,1 52123U 22029AM  24117.67934448  .00003871  00000-0  26111-3 0  9991,2 52123  53.2185 250.7175 0001350  95.7747 264.3399 15.08850274117975,6917.849,95.437,540.648,538.78,0.0
52123.0,STARLINK-3725,PAYLOAD,2024-04-27 14:33:38,15.088568,0.0001289,53.2167,246.5558,91.9176,268.1964,0.00038467,5.842e-05,0.0,0 STARLINK-3725,1 52123U 22029AM  24118.60669641  .00005842  00000-0  38467-3 0  9992,2 52123  53.2167 246.5558 0001289  91.9176 268.1964 15.08856800118116,6917.829,95.436,540.586,538.802,0.0
52123.0,STARLINK-3725,PAYLOAD,2024-04-27 16:09:01,15.08867624,0.0001472,53.2185,246.2563,76.4362,283.6794,0.00047723,7.321e-05,0.0,0 STARLINK-3725,1 52123U 22029AM  24118.67293075  .00007321  00000-0  47723-3 0  9992,2 52123  53.2185 246.2563 0001472  76.4362 283.6794 15.08867624118128,6917.796,95.436,540.679,538.643,0.0
52123.0,STARLINK-3725,PAYLOAD,2024-04-28 01:41:20,15.08844191,0.0001289,53.2186,244.4724,97.7683,262.3456,0.00011679,1.572e-05,0.0,0 STARLINK-3725,1 52123U 22029AM  24119.07037933  .00001572  00000-0  11679-3 0  9999,2 52123  53.2186 244.4724 0001289  97.7683 262.3456 15.08844191118185,6917.868,95.437,540.624,538.841,0.0
52123.0,STARLINK-3725,PAYLOAD,2024-04-28 12:49:03,15.08827559,0.0001304,53.2156,242.3906,104.5844,255.5293,-0.00036199,-6.042e-05,0.0,0 STARLINK-3725,1 52123U 22029AM  24119.53406977 -.00006042  00000-0 -36199-3 0  9991,2 52123  53.2156 242.3906 0001304 104.5844 255.5293 15.08827559118255,6917.918,95.438,540.686,538.881,0.0
52123.0,STARLINK-3725,PAYLOAD,2024-04-28 14:24:26,15.08824277,0.0001061,53.2164,242.0922,114.8965,245.2138,-0.00039532,-6.571e-05,0.0,0 STARLINK-3725,1 52123U 22029AM  24119.60031084 -.00006571  00000-0 -39532-3 0  9993,2 52123  53.2164 242.0922 0001061 114.8965 245.2138 15.08824277118266,6917.928,95.439,540.527,539.059,0.0
52123.0,STARLINK-3725,PAYLOAD,2024-04-29 01:32:08,15.08835067,0.0001375,53.2177,240.0113,109.0301,251.0841,-0.00017274,-3.036e-05,0.0,0 STARLINK-3725,1 52123U 22029AM  24120.06398853 -.00003036  00000-0 -17274-3 0  9997,2 52123  53.2177 240.0113 0001375 109.0301 251.0841 15.08835067118331,6917.895,95.438,540.712,538.809,0.0
52123.0,STARLINK-3725,PAYLOAD,2024-04-29 12:39:50,15.08843993,0.0001261,53.2165,237.9309,102.1801,257.9332,5.9673e-05,6.62e-06,0.0,0 STARLINK-3725,1 52123U 22029AM  24120.52766531  .00000662  00000-0  59673-4 0  9990,2 52123  53.2165 237.9309 0001261 102.1801 257.9332 15.08843993118408,6917.868,95.437,540.606,538.861,0.0
52123.0,STARLINK-3725,PAYLOAD,2024-04-29 14:15:13,15.08844758,0.0001319,53.2166,237.6335,100.5899,259.5242,7.1112e-05,8.44e-06,0.0,0 STARLINK-3725,1 52123U 22029AM  24120.59390534  .00000844  00000-0  71112-4 0  9997,2 52123  53.2166 237.6335 0001319 100.5899 259.5242 15.08844758118417,6917.866,95.437,540.643,538.818,0.0
52123.0,STARLINK-3725,PAYLOAD,2024-04-30 12:30:37,15.08847299,0.0001228,53.2159,233.4702,107.8413,252.2714,0.00042947,6.555e-05,0.0,0 STARLINK-3725,1 52123U 22029AM  24121.52127016  .00006555  00000-0  42947-3 0  9992,2 52123  53.2159 233.4702 0001228 107.8413 252.2714 15.08847299118554,6917.858,95.437,540.573,538.874,0.0
52123.0,STARLINK-3725,PAYLOAD,2024-04-30 14:06:00,15.08849079,0.0001274,53.2174,233.1749,91.6987,268.4151,0.00036545,5.534e-05,0.0,0 STARLINK-3725,1 52123U 22029AM  24121.58750950  .00005534  00000-0  36545-3 0  9990,2 52123  53.2174 233.1749 0001274  91.6987 268.4151 15.08849079118569,6917.853,95.437,540.599,538.836,0.0
52123.0,STARLINK-3725,PAYLOAD,2024-05-01 13:56:47,15.08850753,0.0001228,53.2175,228.7125,91.3822,268.7311,0.00022635,3.317e-05,0.0,0 STARLINK-3725,1 52123U 22029AM  24122.58110447  .00003317  00000-0  22635-3 0  9994,2 52123  53.2175 228.7125 0001228  91.3822 268.7311 15.08850753118711,6917.848,95.437,540.562,538.863,0.0
52123.0,STARLINK-3725,PAYLOAD,2024-05-02 13:47:34,15.08839023,0.0001358,53.218,224.2543,94.507,265.6077,7.7252e-06,-1.65e-06,0.0,0 STARLINK-3725,1 52123U 22029AM  24123.57470884 -.00000165  00000-0  77252-5 0  9994,2 52123  53.2180 224.2543 0001358  94.5070 265.6077 15.08839023118864,6917.883,95.438,540.688,538.809,0.0
52123.0,STARLINK-3725,PAYLOAD,2024-05-03 13:38:20,15.08868231,0.0001298,53.2167,219.7937,98.8535,261.2604,0.00088839,0.0001389,0.0,0 STARLINK-3725,1 52123U 22029AM  24124.56829785  .00013890  00000-0  88839-3 0  9991,2 52123  53.2167 219.7937 0001298  98.8535 261.2604 15.08868231119010,6917.794,95.436,540.557,538.761,0.0
52123.0,STARLINK-3725,PAYLOAD,2024-05-03 23:10:39,15.0885672,0.0001355,53.2166,218.008,78.7418,281.3726,0.00025055,3.704e-05,0.0,0 STARLINK-3725,1 52123U 22029AM  24124.96573627  .00003704  00000-0  25055-3 0  9990,2 52123  53.2166 218.0080 0001355  78.7418 281.3726 15.08856720119075,6917.829,95.436,540.632,538.757,0.0
